[{"OBJECT_NAME":"STARLINK-30927","OBJECT_ID":"2023-178J","EPOCH":"2026-03-09T01:49:18.808032","MEAN_MOTION":15.30189297,"ECCENTRICITY":0.00011698,"INCLINATION":53.1617,"RA_OF_ASC_NODE":4.1926,"ARG_OF_PERICENTER":85.5281,"MEAN_ANOMALY":274.5853,"EPHEMERIS_TYPE":0,"CLASSIFICATION_TYPE":"U","NORAD_CAT_ID":58382,"ELEMENT_SET_NO":999,"REV_AT_EPOCH":12977,"BSTAR":-1.3388147e-5,"MEAN_MOTION_DOT":-7.55e-6,"MEAN_MOTION_DDOT":0},{"OBJECT_NAME":"OBJECT D","OBJECT_ID":"2024-085D","EPOCH":"2026-03-09T22:53:13.410816","MEAN_MOTION":15.33413141,"ECCENTRICITY":0.00152451,"INCLINATION":97.3312,"RA_OF_ASC_NODE":145.3953,"ARG_OF_PERICENTER":54.9672,"MEAN_ANOMALY":305.2998,"EPHEMERIS_TYPE":0,"CLASSIFICATION_TYPE":"U","NORAD_CAT_ID":59680,"ELEMENT_SET_NO":999,"REV_AT_EPOCH":10244,"BSTAR":0.00049264705,"MEAN_MOTION_DOT":0.00015903,"MEAN_MOTION_DDOT":0}]
